STARLINK-1695
1 46329U 20062E   26061.13570324  .00110212  00000+0  17613-2 0  9990
2 46329  53.0514  13.0186 0005903  86.8926 273.2758 15.52328177303695
